NORAD_CAT_ID,OBJECT_NAME,OBJECT_TYPE,EPOCH,MEAN_MOTION,ECCENTRICITY,INCLINATION,RA_OF_ASC_NODE,ARG_OF_PERICENTER,MEAN_ANOMALY,BSTAR,MEAN_MOTION_DOT,MEAN_MOTION_DDOT,TLE_LINE0,TLE_LINE1,TLE_LINE2,SEMIMAJOR_AXIS,PERIOD,APOGEE,PERIGEE,DECAYED
56774.0,STARLINK-6190,PAYLOAD,2023-09-29 13:04:44,14.98334275,0.0003101,69.9994,93.8246,271.2167,88.8637,-5.9784e-06,-1.64e-06,0.0,0 STARLINK-6190,1 56774U 23078H   23272.54495494 -.00000164  00000-0 -59784-5 0  9990,2 56774  69.9994  93.8246 0003101 271.2167  88.8637 14.98334275 18555,6950.18,96.107,574.2,569.889,0.0
56774.0,STARLINK-6190,PAYLOAD,2023-09-29 22:41:22,14.98461121,0.0003057,69.9993,92.8143,270.9367,89.1442,0.0013764,0.00016424,0.0,0 STARLINK-6190,1 56774U 23078H   23272.94539474  .00016424  00000-0  13764-2 0  9990,2 56774  69.9993  92.8143 0003057 270.9367  89.1442 14.98461121 18871,6949.787,96.099,573.777,569.528,0.0
56774.0,STARLINK-6190,PAYLOAD,2023-09-30 17:54:21,14.98790691,0.0003011,69.9995,90.7928,272.8215,87.26,0.0044219,0.00053712,0.0,0 STARLINK-6190,1 56774U 23078H   23273.74608641  .00053712  00000-0  44219-2 0  9992,2 56774  69.9995  90.7928 0003011 272.8215  87.2600 14.98790691 18999,6948.769,96.077,572.726,568.541,0.0
56774.0,STARLINK-6190,PAYLOAD,2023-10-01 13:07:33,14.98859759,0.0002975,69.9999,88.77,268.6753,91.4065,0.0040167,0.00048835,0.0,0 STARLINK-6190,1 56774U 23078H   23274.54691871  .00048835  00000-0  40167-2 0  9996,2 56774  69.9999  88.7700 0002975 268.6753  91.4065 14.98859759 18854,6948.555,96.073,572.487,568.353,0.0
56774.0,STARLINK-6190,PAYLOAD,2023-10-01 17:55:50,14.98875442,0.0002859,69.9989,88.2652,267.382,92.7012,0.003966,0.00048232,0.0,0 STARLINK-6190,1 56774U 23078H   23274.74711672  .00048232  00000-0  39660-2 0  9997,2 56774  69.9989  88.2652 0002859 267.3820  92.7012 14.98875442 19142,6948.507,96.072,572.358,568.385,0.0
56774.0,STARLINK-6190,PAYLOAD,2023-10-01 21:08:02,14.98886756,0.0002986,69.9988,87.928,268.3643,91.7174,0.003895,0.00047376,0.0,0 STARLINK-6190,1 56774U 23078H   23274.88058079  .00047376  00000-0  38950-2 0  9996,2 56774  69.9988  87.9280 0002986 268.3643  91.7174 14.98886756 18900,6948.472,96.071,572.412,568.262,0.0
56774.0,STARLINK-6190,PAYLOAD,2023-10-02 09:56:43,14.99036658,0.0003512,69.9986,86.5804,271.4874,88.5883,0.0016006,0.00019412,0.0,0 STARLINK-6190,1 56774U 23078H   23275.41439296  .00019412  00000-0  16006-2 0  9998,2 56774  69.9986  86.5804 0003512 271.4874  88.5883 14.99036658 19240,6948.008,96.062,572.314,567.433,0.0
56774.0,STARLINK-6190,PAYLOAD,2023-10-02 20:00:01,14.99133697,0.0003207,70.0008,85.5223,273.0738,187.4569,0.00042529,5.091e-05,0.0,0 STARLINK-6190,1 56774U 23078H   23275.83334491  .00005091  00000-0  42529-3 0  9993,2 56774  70.0008  85.5223 0003207 273.0738 187.4569 14.99133697 19308,6947.709,96.055,571.802,567.346,0.0
56774.0,STARLINK-6190,PAYLOAD,2023-10-02 22:00:00,14.99120737,0.0003237,70.0008,85.3118,274.0262,276.1218,0.0026455,0.00032274,0.0,0 STARLINK-6190,1 56774U 23078H   23275.91667824  .00032274  00000-0  26455-2 0  9993,2 56774  70.0008  85.3118 0003237 274.0262 276.1218 14.99120737  5780,6947.749,96.056,571.863,567.365,0.0
56774.0,STARLINK-6190,PAYLOAD,2023-10-03 14:46:11,14.99138877,0.0003132,69.9988,83.5486,270.0124,90.0677,1.3963e-05,7.6e-07,0.0,0 STARLINK-6190,1 56774U 23078H   23276.61541546  .00000076  00000-0  13963-4 0  9990,2 56774  69.9988  83.5486 0003132 270.0124  90.0677 14.99138877 19162,6947.693,96.055,571.734,567.382,0.0
56774.0,STARLINK-6190,PAYLOAD,2023-10-03 21:10:31,14.99143012,0.0003137,69.9989,82.875,270.2741,89.8058,4.1895e-05,4.17e-06,0.0,0 STARLINK-6190,1 56774U 23078H   23276.88230775  .00000417  00000-0  41895-4 0  9992,2 56774  69.9989  82.8750 0003137 270.2741  89.8058 14.99143012 19202,6947.68,96.055,571.724,567.365,0.0
56774.0,STARLINK-6190,PAYLOAD,2023-10-04 13:11:20,14.99140389,0.0003105,69.9991,81.1904,270.4261,89.6543,3.8705e-05,3.78e-06,0.0,0 STARLINK-6190,1 56774U 23078H   23277.54954838  .00000378  00000-0  38705-4 0  9991,2 56774  69.9991  81.1904 0003105 270.4261  89.6543 14.99140389 19304,6947.688,96.055,571.71,567.396,0.0
56774.0,STARLINK-6190,PAYLOAD,2023-10-04 21:11:45,14.99145782,0.0003099,69.9993,80.3482,270.6058,89.4746,6.1228e-05,6.53e-06,0.0,0 STARLINK-6190,1 56774U 23078H   23277.88316347  .00000653  00000-0  61228-4 0  9997,2 56774  69.9993  80.3482 0003099 270.6058  89.4746 14.99145782 19356,6947.671,96.055,571.689,567.383,0.0
56774.0,STARLINK-6190,PAYLOAD,2023-10-05 10:00:25,14.99140041,0.0002983,69.9997,79.0007,271.2063,88.8755,-1.3841e-05,-2.62e-06,0.0,0 STARLINK-6190,1 56774U 23078H   23278.41696066 -.00000262  00000-0 -13841-4 0  9992,2 56774  69.9997  79.0007 0002983 271.2063  88.8755 14.99140041 19695,6947.689,96.055,571.627,567.482,0.0
56774.0,STARLINK-6190,PAYLOAD,2023-10-05 13:12:35,14.99140081,0.0002981,69.9997,78.6637,271.2189,88.8629,-1.3473e-05,-2.58e-06,0.0,0 STARLINK-6190,1 56774U 23078H   23278.55040839 -.00000258  00000-0 -13473-4 0  9994,2 56774  69.9997  78.6637 0002981 271.2189  88.8629 14.99140081 19454,6947.689,96.055,571.625,567.483,0.0
56774.0,STARLINK-6190,PAYLOAD,2023-10-05 19:36:54,14.99140871,0.0002931,69.9998,77.9902,269.7257,90.3567,1.4839e-05,8.7e-07,0.0,0 STARLINK-6190,1 56774U 23078H   23278.81730271  .00000087  00000-0  14839-4 0  9994,2 56774  69.9998  77.9902 0002931 269.7257  90.3567 14.99140871 19495,6947.686,96.055,571.588,567.515,0.0
56774.0,STARLINK-6190,PAYLOAD,2023-10-06 10:01:39,14.9913842,0.0002901,69.9999,76.4741,270.5378,89.5449,-5.0793e-05,-7.13e-06,0.0,0 STARLINK-6190,1 56774U 23078H   23279.41782212 -.00000713  00000-0 -50793-4 0  9990,2 56774  69.9999  76.4741 0002901 270.5378  89.5449 14.99138420 19847,6947.694,96.055,571.575,567.544,0.0
56774.0,STARLINK-6190,PAYLOAD,2023-10-06 13:13:49,14.99137928,0.0002909,69.9999,76.1372,270.5748,89.5078,-5.4442e-05,-7.57e-06,0.0,0 STARLINK-6190,1 56774U 23078H   23279.55127046 -.00000757  00000-0 -54442-4 0  9996,2 56774  69.9999  76.1372 0002909 270.5748  89.5078 14.99137928 19607,6947.696,96.055,571.582,567.539,0.0
56774.0,STARLINK-6190,PAYLOAD,2023-10-06 19:38:09,14.99138745,0.0002904,70.0,75.4634,270.6747,89.408,-4.0519e-05,-5.87e-06,0.0,0 STARLINK-6190,1 56774U 23078H   23279.81816561 -.00000587  00000-0 -40519-4 0  9993,2 56774  70.0000  75.4634 0002904 270.6747  89.4080 14.99138745 19645,6947.693,96.055,571.576,567.54,0.0
56774.0,STARLINK-6190,PAYLOAD,2023-10-07 13:15:03,14.9913818,0.000289,70.0,73.6102,268.3921,91.6908,1.6698e-05,1.1e-06,0.0,0 STARLINK-6190,1 56774U 23078H   23280.55212839  .00000110  00000-0  16698-4 0  9995,2 56774  70.0000  73.6102 0002890 268.3921  91.6908 14.99138180 19756,6947.695,96.055,571.568,567.552,0.0
56774.0,STARLINK-6190,PAYLOAD,2023-10-07 18:03:18,14.99138238,0.0002834,70.0003,73.1052,265.4659,94.6176,2.2805e-05,1.84e-06,0.0,0 STARLINK-6190,1 56774U 23078H   23280.75230014  .00000184  00000-0  22805-4 0  9990,2 56774  70.0003  73.1052 0002834 265.4659  94.6176 14.99138238 20040,6947.695,96.055,571.529,567.591,0.0
56774.0,STARLINK-6190,PAYLOAD,2023-10-07 21:15:28,14.99140065,0.0002802,70.0004,72.7683,262.6093,97.4748,4.3251e-05,4.33e-06,0.0,0 STARLINK-6190,1 56774U 23078H   23280.88574624  .00000433  00000-0  43251-4 0  9997,2 56774  70.0004  72.7683 0002802 262.6093  97.4748 14.99140065 19801,6947.689,96.055,571.501,567.607,0.0
56774.0,STARLINK-6190,PAYLOAD,2023-10-08 13:16:18,14.99136419,0.0002955,70.0001,71.0816,268.6025,91.4796,-2.7633e-08,-9.4e-07,0.0,0 STARLINK-6190,1 56774U 23078H   23281.55299040 -.00000094  00000-0 -27633-7 0  9992,2 56774  70.0001  71.0816 0002955 268.6025  91.4796 14.99136419 19904,6947.7,96.055,571.618,567.512,0.0
56774.0,STARLINK-6190,PAYLOAD,2023-10-08 18:04:32,14.99138923,0.0003041,69.9996,70.5762,270.4107,89.6704,4.9344e-05,5.08e-06,0.0,0 STARLINK-6190,1 56774U 23078H   23281.75315932  .00000508  00000-0  49344-4 0  9991,2 56774  69.9996  70.5762 0003041 270.4107  89.6704 14.99138923 20190,6947.692,96.055,571.67,567.445,0.0
56774.0,STARLINK-6190,PAYLOAD,2023-10-08 19:40:37,14.99140175,0.0003039,69.9999,70.4087,271.4789,88.6022,6.0578e-05,6.44e-06,0.0,0 STARLINK-6190,1 56774U 23078H   23281.81988234  .00000644  00000-0  60578-4 0  9992,2 56774  69.9999  70.4087 0003039 271.4789  88.6022 14.99140175 19941,6947.689,96.055,571.665,567.442,0.0
56774.0,STARLINK-6190,PAYLOAD,2023-10-09 13:17:32,14.99138081,0.0002956,70.0003,68.5566,270.4782,89.6039,3.349e-05,3.14e-06,0.0,0 STARLINK-6190,1 56774U 23078H   23282.55384824  .00000314  00000-0  33490-4 0  9996,2 56774  70.0003  68.5566 0002956 270.4782  89.6039 14.99138081 20055,6947.695,96.055,571.614,567.506,0.0
56774.0,STARLINK-6190,PAYLOAD,2023-10-09 18:05:46,14.99144329,0.0003015,70.0002,68.0515,271.7616,88.3198,7.2026e-05,7.84e-06,0.0,0 STARLINK-6190,1 56774U 23078H   23282.75401487  .00000784  00000-0  72026-4 0  9992,2 56774  70.0002  68.0515 0003015 271.7616  88.3198 14.99144329 20346,6947.676,96.055,571.636,567.446,0.0
56774.0,STARLINK-6190,PAYLOAD,2023-10-09 19:41:51,14.99145844,0.0003042,70.0003,67.8831,272.4352,87.6459,8.5476e-05,9.48e-06,0.0,0 STARLINK-6190,1 56774U 23078H   23282.82073731  .00000948  00000-0  85476-4 0  9992,2 56774  70.0003  67.8831 0003042 272.4352  87.6459 14.99145844 20097,6947.671,96.055,571.65,567.423,0.0
56774.0,STARLINK-6190,PAYLOAD,2023-10-10 10:06:36,14.9913613,0.0002994,70.0008,66.3671,272.3638,87.7179,4.3156e-05,4.32e-06,0.0,0 STARLINK-6190,1 56774U 23078H   23283.42125934  .00000432  00000-0  43156-4 0  9999,2 56774  70.0008  66.3671 0002994 272.3638  87.7179 14.99136130 20446,6947.701,96.055,571.646,567.486,0.0
56774.0,STARLINK-6190,PAYLOAD,2023-10-10 13:18:46,14.9913845,0.000294,70.0006,66.0302,272.8775,87.2048,1.5832e-06,-7.4e-07,0.0,0 STARLINK-6190,1 56774U 23078H   23283.55470721 -.00000074  00000-0  15832-5 0  9994,2 56774  70.0006  66.0302 0002940 272.8775  87.2048 14.99138450 20201,6947.694,96.055,571.602,567.516,0.0
